STARLINK-36426          
1 67560U 26014AA  26039.59609182  .00272071  00000+0  13716-2 0  9995
2 67560  97.2853 283.0906 0001057  82.6780 277.4609 15.80906496  3985
STARLINK-36621          
1 67561U 26016A   26039.58335648  .00144644  00000+0  74495-3 0  9996
2 67561  97.2840  98.5365 0001214  98.7651 311.4463 15.80771228  3373
STARLINK-36398          
1 67562U 26016B   26039.58335648 -.00802616  00000+0 -57636-2 0  9996
2 67562  97.2796  98.5334 0001132  81.7055 325.8877 15.75747844  3356
STARLINK-36403          
1 67563U 26016C   26039.58335648  .00129734  00000+0  66873-3 0  9992
2 67563  97.2838  98.5431 0001186  99.1528 323.7138 15.80792785  3468
STARLINK-36593          
1 67564U 26016D   26039.58335648  .00168397  00000+0  86489-3 0  9996
2 67564  97.2837  98.5456 0001419  91.1801 338.6572 15.80768626  3318
STARLINK-35725          
1 67565U 26016E   26039.58335648  .00155742  00000+0  80129-3 0  9992
2 67565  97.2841  98.5468 0001254  95.6981 339.3616 15.80763999  3362
STARLINK-36394          
1 67566U 26016F   26039.58335648  .00224960  00000+0  11498-2 0  9994
2 67566  97.2785  98.5536 0001450  79.6084  17.8385 15.80726667  3463
STARLINK-36352          
1 67567U 26016G   26039.58335648  .00158963  00000+0  81728-3 0  9998
2 67567  97.2786  98.5511 0001245  80.1693  10.4991 15.80771223  3373
STARLINK-36435          
1 67568U 26016H   26039.58335648  .00136509  00000+0  70374-3 0  9996
2 67568  97.2784  98.5566 0001251  80.2692  23.1977 15.80771476  3374
STARLINK-36575          
1 67569U 26016J   26039.58335648  .00130173  00000+0  67178-3 0  9996
2 67569  97.2838  98.5618 0001210 125.0956 345.2619 15.80765728  3373
STARLINK-36562          
1 67570U 26016K   26039.58335648  .00147327  00000+0  75894-3 0  9991
2 67570  97.2842  98.5634 0001044  93.8833  21.6631 15.80759325  3374
STARLINK-36578          
1 67571U 26016L   26039.58335648 -.01553216  00000+0 -90638-2 0  9995
2 67571  97.2840  98.5641 0002027 110.5790  10.8309 15.81189513  3359
