CCSDS_OMM_VERS = 2.0
CREATION_DATE  = 
ORIGINATOR     = 

OBJECT_NAME    = STARLINK-36426
OBJECT_ID      = 2026-014AA
CENTER_NAME    = EARTH
REF_FRAME      = TEME
TIME_SYSTEM    = UTC
MEAN_ELEMENT_THEORY = SGP/SGP4

EPOCH          = 2026-02-08T14:18:22.333248
MEAN_MOTION    = 15.80906496
ECCENTRICITY   = .00010573
INCLINATION    = 97.2853
RA_OF_ASC_NODE = 283.0906
ARG_OF_PERICENTER = 82.6780
MEAN_ANOMALY   = 277.4609

EPHEMERIS_TYPE = 0
CLASSIFICATION_TYPE = U
NORAD_CAT_ID   = 67560
ELEMENT_SET_NO = 999
REV_AT_EPOCH   = 398
BSTAR          = .13716145E-2
MEAN_MOTION_DOT = .272071E-2
MEAN_MOTION_DDOT = 0

CCSDS_OMM_VERS = 2.0
CREATION_DATE  = 
ORIGINATOR     = 

OBJECT_NAME    = STARLINK-36621
OBJECT_ID      = 2026-016A
CENTER_NAME    = EARTH
REF_FRAME      = TEME
TIME_SYSTEM    = UTC
MEAN_ELEMENT_THEORY = SGP/SGP4

EPOCH          = 2026-02-08T14:00:01.999872
MEAN_MOTION    = 15.80771228
ECCENTRICITY   = .00012143
INCLINATION    = 97.2840
RA_OF_ASC_NODE = 98.5365
ARG_OF_PERICENTER = 98.7651
MEAN_ANOMALY   = 311.4463

EPHEMERIS_TYPE = 0
CLASSIFICATION_TYPE = U
NORAD_CAT_ID   = 67561
ELEMENT_SET_NO = 999
REV_AT_EPOCH   = 337
BSTAR          = .74495224E-3
MEAN_MOTION_DOT = .144644E-2
MEAN_MOTION_DDOT = 0

CCSDS_OMM_VERS = 2.0
CREATION_DATE  = 
ORIGINATOR     = 

OBJECT_NAME    = STARLINK-36398
OBJECT_ID      = 2026-016B
CENTER_NAME    = EARTH
REF_FRAME      = TEME
TIME_SYSTEM    = UTC
MEAN_ELEMENT_THEORY = SGP/SGP4

EPOCH          = 2026-02-08T14:00:01.999872
MEAN_MOTION    = 15.75747844
ECCENTRICITY   = .00011323
INCLINATION    = 97.2796
RA_OF_ASC_NODE = 98.5334
ARG_OF_PERICENTER = 81.7055
MEAN_ANOMALY   = 325.8877

EPHEMERIS_TYPE = 0
CLASSIFICATION_TYPE = U
NORAD_CAT_ID   = 67562
ELEMENT_SET_NO = 999
REV_AT_EPOCH   = 335
BSTAR          = -.57636168E-2
MEAN_MOTION_DOT = -.802616E-2
MEAN_MOTION_DDOT = 0

CCSDS_OMM_VERS = 2.0
CREATION_DATE  = 
ORIGINATOR     = 

OBJECT_NAME    = STARLINK-36403
OBJECT_ID      = 2026-016C
CENTER_NAME    = EARTH
REF_FRAME      = TEME
TIME_SYSTEM    = UTC
MEAN_ELEMENT_THEORY = SGP/SGP4

EPOCH          = 2026-02-08T14:00:01.999872
MEAN_MOTION    = 15.80792785
ECCENTRICITY   = .0001186
INCLINATION    = 97.2838
RA_OF_ASC_NODE = 98.5431
ARG_OF_PERICENTER = 99.1528
MEAN_ANOMALY   = 323.7138

EPHEMERIS_TYPE = 0
CLASSIFICATION_TYPE = U
NORAD_CAT_ID   = 67563
ELEMENT_SET_NO = 999
REV_AT_EPOCH   = 346
BSTAR          = .6687272E-3
MEAN_MOTION_DOT = .129734E-2
MEAN_MOTION_DDOT = 0

CCSDS_OMM_VERS = 2.0
CREATION_DATE  = 
ORIGINATOR     = 

OBJECT_NAME    = STARLINK-36593
OBJECT_ID      = 2026-016D
CENTER_NAME    = EARTH
REF_FRAME      = TEME
TIME_SYSTEM    = UTC
MEAN_ELEMENT_THEORY = SGP/SGP4

EPOCH          = 2026-02-08T14:00:01.999872
MEAN_MOTION    = 15.80768626
ECCENTRICITY   = .00014194
INCLINATION    = 97.2837
RA_OF_ASC_NODE = 98.5456
ARG_OF_PERICENTER = 91.1801
MEAN_ANOMALY   = 338.6572

EPHEMERIS_TYPE = 0
CLASSIFICATION_TYPE = U
NORAD_CAT_ID   = 67564
ELEMENT_SET_NO = 999
REV_AT_EPOCH   = 331
BSTAR          = .86488855E-3
MEAN_MOTION_DOT = .168397E-2
MEAN_MOTION_DDOT = 0

CCSDS_OMM_VERS = 2.0
CREATION_DATE  = 
ORIGINATOR     = 

OBJECT_NAME    = STARLINK-35725
OBJECT_ID      = 2026-016E
CENTER_NAME    = EARTH
REF_FRAME      = TEME
TIME_SYSTEM    = UTC
MEAN_ELEMENT_THEORY = SGP/SGP4

EPOCH          = 2026-02-08T14:00:01.999872
MEAN_MOTION    = 15.80763999
ECCENTRICITY   = .00012544
INCLINATION    = 97.2841
RA_OF_ASC_NODE = 98.5468
ARG_OF_PERICENTER = 95.6981
MEAN_ANOMALY   = 339.3616

EPHEMERIS_TYPE = 0
CLASSIFICATION_TYPE = U
NORAD_CAT_ID   = 67565
ELEMENT_SET_NO = 999
REV_AT_EPOCH   = 336
BSTAR          = .80128634E-3
MEAN_MOTION_DOT = .155742E-2
MEAN_MOTION_DDOT = 0

CCSDS_OMM_VERS = 2.0
CREATION_DATE  = 
ORIGINATOR     = 

OBJECT_NAME    = STARLINK-36394
OBJECT_ID      = 2026-016F
CENTER_NAME    = EARTH
REF_FRAME      = TEME
TIME_SYSTEM    = UTC
MEAN_ELEMENT_THEORY = SGP/SGP4

EPOCH          = 2026-02-08T14:00:01.999872
MEAN_MOTION    = 15.80726667
ECCENTRICITY   = .000145
INCLINATION    = 97.2785
RA_OF_ASC_NODE = 98.5536
ARG_OF_PERICENTER = 79.6084
MEAN_ANOMALY   = 17.8385

EPHEMERIS_TYPE = 0
CLASSIFICATION_TYPE = U
NORAD_CAT_ID   = 67566
ELEMENT_SET_NO = 999
REV_AT_EPOCH   = 346
BSTAR          = .11498249E-2
MEAN_MOTION_DOT = .22496E-2
MEAN_MOTION_DDOT = 0

CCSDS_OMM_VERS = 2.0
CREATION_DATE  = 
ORIGINATOR     = 

OBJECT_NAME    = STARLINK-36352
OBJECT_ID      = 2026-016G
CENTER_NAME    = EARTH
REF_FRAME      = TEME
TIME_SYSTEM    = UTC
MEAN_ELEMENT_THEORY = SGP/SGP4

EPOCH          = 2026-02-08T14:00:01.999872
MEAN_MOTION    = 15.80771223
ECCENTRICITY   = .00012454
INCLINATION    = 97.2786
RA_OF_ASC_NODE = 98.5511
ARG_OF_PERICENTER = 80.1693
MEAN_ANOMALY   = 10.4991

EPHEMERIS_TYPE = 0
CLASSIFICATION_TYPE = U
NORAD_CAT_ID   = 67567
ELEMENT_SET_NO = 999
REV_AT_EPOCH   = 337
BSTAR          = .81727556E-3
MEAN_MOTION_DOT = .158963E-2
MEAN_MOTION_DDOT = 0

CCSDS_OMM_VERS = 2.0
CREATION_DATE  = 
ORIGINATOR     = 

OBJECT_NAME    = STARLINK-36435
OBJECT_ID      = 2026-016H
CENTER_NAME    = EARTH
REF_FRAME      = TEME
TIME_SYSTEM    = UTC
MEAN_ELEMENT_THEORY = SGP/SGP4

EPOCH          = 2026-02-08T14:00:01.999872
MEAN_MOTION    = 15.80771476
ECCENTRICITY   = .00012513
INCLINATION    = 97.2784
RA_OF_ASC_NODE = 98.5566
ARG_OF_PERICENTER = 80.2692
MEAN_ANOMALY   = 23.1977

EPHEMERIS_TYPE = 0
CLASSIFICATION_TYPE = U
NORAD_CAT_ID   = 67568
ELEMENT_SET_NO = 999
REV_AT_EPOCH   = 337
BSTAR          = .70374313E-3
MEAN_MOTION_DOT = .136509E-2
MEAN_MOTION_DDOT = 0

CCSDS_OMM_VERS = 2.0
CREATION_DATE  = 
ORIGINATOR     = 

OBJECT_NAME    = STARLINK-36575
OBJECT_ID      = 2026-016J
CENTER_NAME    = EARTH
REF_FRAME      = TEME
TIME_SYSTEM    = UTC
MEAN_ELEMENT_THEORY = SGP/SGP4

EPOCH          = 2026-02-08T14:00:01.999872
MEAN_MOTION    = 15.80765728
ECCENTRICITY   = .00012103
INCLINATION    = 97.2838
RA_OF_ASC_NODE = 98.5618
ARG_OF_PERICENTER = 125.0956
MEAN_ANOMALY   = 345.2619

EPHEMERIS_TYPE = 0
CLASSIFICATION_TYPE = U
NORAD_CAT_ID   = 67569
ELEMENT_SET_NO = 999
REV_AT_EPOCH   = 337
BSTAR          = .67178038E-3
MEAN_MOTION_DOT = .130173E-2
MEAN_MOTION_DDOT = 0

CCSDS_OMM_VERS = 2.0
CREATION_DATE  = 
ORIGINATOR     = 

OBJECT_NAME    = STARLINK-36562
OBJECT_ID      = 2026-016K
CENTER_NAME    = EARTH
REF_FRAME      = TEME
TIME_SYSTEM    = UTC
MEAN_ELEMENT_THEORY = SGP/SGP4

EPOCH          = 2026-02-08T14:00:01.999872
MEAN_MOTION    = 15.80759325
ECCENTRICITY   = .00010443
INCLINATION    = 97.2842
RA_OF_ASC_NODE = 98.5634
ARG_OF_PERICENTER = 93.8833
MEAN_ANOMALY   = 21.6631

EPHEMERIS_TYPE = 0
CLASSIFICATION_TYPE = U
NORAD_CAT_ID   = 67570
ELEMENT_SET_NO = 999
REV_AT_EPOCH   = 337
BSTAR          = .75893506E-3
MEAN_MOTION_DOT = .147327E-2
MEAN_MOTION_DDOT = 0

CCSDS_OMM_VERS = 2.0
CREATION_DATE  = 
ORIGINATOR     = 

OBJECT_NAME    = STARLINK-36578
OBJECT_ID      = 2026-016L
CENTER_NAME    = EARTH
REF_FRAME      = TEME
TIME_SYSTEM    = UTC
MEAN_ELEMENT_THEORY = SGP/SGP4

EPOCH          = 2026-02-08T14:00:01.999872
MEAN_MOTION    = 15.81189513
ECCENTRICITY   = .00020272
INCLINATION    = 97.2840
RA_OF_ASC_NODE = 98.5641
ARG_OF_PERICENTER = 110.5790
MEAN_ANOMALY   = 10.8309

EPHEMERIS_TYPE = 0
CLASSIFICATION_TYPE = U
NORAD_CAT_ID   = 67571
ELEMENT_SET_NO = 999
REV_AT_EPOCH   = 335
BSTAR          = -.90638065E-2
MEAN_MOTION_DOT = -.1553216E-1
MEAN_MOTION_DDOT = 0

